{
  "norad_id": 65961,
  "name": "KUIPER-00135",
  "history": [
    {
      "epoch": "2026-03-28T18:48:04.124448Z",
      "apogee_km": 630.0348178893719,
      "perigee_km": 629.0363646985634,
      "latitude_deg": 5.7896632157614046e-05,
      "longitude_deg": 158.028688451411,
      "height_km": 630.4091520402045,
      "semi_major_axis_km": 7007.672591293967,
      "eccentricity": 7.124e-05,
      "inclination_deg": 51.9012,
      "raan_deg": 266.2447,
      "arg_perigee_deg": 104.8051,
      "mean_anomaly_deg": 255.2991,
      "mean_motion_rev_day": 14.79933012
    },
    {
      "epoch": "2026-03-29T04:31:31.498464Z",
      "apogee_km": 629.9931367966146,
      "perigee_km": 629.0443002123284,
      "latitude_deg": -4.15605816698503e-05,
      "longitude_deg": 9.973690903708356,
      "height_km": 630.3818792471393,
      "semi_major_axis_km": 7007.655718504471,
      "eccentricity": 6.77e-05,
      "inclination_deg": 51.9014,
      "raan_deg": 264.4532,
      "arg_perigee_deg": 104.2886,
      "mean_anomaly_deg": 255.8151,
      "mean_motion_rev_day": 14.79938357
    },
    {
      "epoch": "2026-03-30T04:50:09.446208Z",
      "apogee_km": 629.9430479523289,
      "perigee_km": 629.0341589115633,
      "latitude_deg": 1.687339730077048e-05,
      "longitude_deg": -0.16207692774012247,
      "height_km": 630.3360233685489,
      "semi_major_axis_km": 7007.625603431946,
      "eccentricity": 6.485e-05,
      "inclination_deg": 51.9013,
      "raan_deg": 259.9739,
      "arg_perigee_deg": 102.8843,
      "mean_anomaly_deg": 257.2192,
      "mean_motion_rev_day": 14.79947897
    },
    {
      "epoch": "2026-03-30T17:48:05.426208Z",
      "apogee_km": 629.8949778007036,
      "perigee_km": 629.047057230583,
      "latitude_deg": 3.1128532227371515e-07,
      "longitude_deg": 162.43338456351248,
      "height_km": 630.3099504349437,
      "semi_major_axis_km": 7007.608017515643,
      "eccentricity": 6.05e-05,
      "inclination_deg": 51.9015,
      "raan_deg": 257.5851,
      "arg_perigee_deg": 102.6393,
      "mean_anomaly_deg": 257.4637,
      "mean_motion_rev_day": 14.79953468
    },
    {
      "epoch": "2026-03-31T18:06:42.422688Z",
      "apogee_km": 629.8760920580216,
      "perigee_km": 628.9959408871518,
      "latitude_deg": 2.174477803563671e-05,
      "longitude_deg": 152.30096304357681,
      "height_km": 630.2992004979753,
      "semi_major_axis_km": 7007.5730164725865,
      "eccentricity": 6.28e-05,
      "inclination_deg": 51.9012,
      "raan_deg": 253.1052,
      "arg_perigee_deg": 105.4277,
      "mean_anomaly_deg": 254.6755,
      "mean_motion_rev_day": 14.79964556
    }
  ]
}